STARLINK-31976          
1 59887U 24100C   26068.51025519 -.00004740  00000+0 -16274-3 0  9993
2 59887  43.0015 130.3389 0001770 234.8036 125.2650 15.27599527101083
HAWK-11C                
1 62381U 24247E   26068.51221537  .00009223  00000+0  33290-3 0  9992
2 62381  45.0045 114.8762 0005900 329.7040  30.3502 15.28848020 67743
